NORAD_CAT_ID,OBJECT_NAME,OBJECT_TYPE,EPOCH,MEAN_MOTION,ECCENTRICITY,INCLINATION,RA_OF_ASC_NODE,ARG_OF_PERICENTER,MEAN_ANOMALY,BSTAR,MEAN_MOTION_DOT,MEAN_MOTION_DDOT,TLE_LINE0,TLE_LINE1,TLE_LINE2,SEMIMAJOR_AXIS,PERIOD,APOGEE,PERIGEE,DECAYED
49760.0,STARLINK-3199,PAYLOAD,2022-11-29 12:55:33,15.08837842,0.0001977,53.217,108.8616,51.2486,308.8682,5.997100000000001e-05,6.66e-06,0.0,0 STARLINK-3199,1 49760U 21115AN  22333.53857740  .00000666  00000-0  59971-4 0  9991,2 49760  53.2170 108.8616 0001977  51.2486 308.8682 15.08837842 55108,6917.887,95.438,541.12,538.384,0.0
49760.0,STARLINK-3199,PAYLOAD,2022-11-29 16:06:19,15.08840057,0.0002016,53.217,108.2668,53.3142,306.8035,7.2148e-05,8.599999999999999e-06,0.0,0 STARLINK-3199,1 49760U 21115AN  22333.67105562  .00000860  00000-0  72148-4 0  9991,2 49760  53.2170 108.2668 0002016  53.3142 306.8035 15.08840057 56233,6917.88,95.438,541.14,538.351,0.0
49760.0,STARLINK-3199,PAYLOAD,2022-11-30 09:35:34,15.08834853,0.0002083,53.2169,104.9959,51.6395,308.4784,-6.7469e-05,-1.362e-05,0.0,0 STARLINK-3199,1 49760U 21115AN  22334.39970515 -.00001362  00000-0 -67469-4 0  9999,2 49760  53.2169 104.9959 0002083  51.6395 308.4784 15.08834853 56340,6917.896,95.438,541.202,538.32,0.0
49760.0,STARLINK-3199,PAYLOAD,2022-11-30 15:57:06,15.08838926,0.0002114,53.2174,103.8069,53.7586,306.3601,-3.3959e-05,-8.29e-06,0.0,0 STARLINK-3199,1 49760U 21115AN  22334.66466183 -.00000829  00000-0 -33959-4 0  9994,2 49760  53.2174 103.8069 0002114  53.7586 306.3601 15.08838926 55277,6917.884,95.438,541.211,538.286,0.0
49760.0,STARLINK-3199,PAYLOAD,2022-12-01 01:29:25,15.08843667,0.0001969,53.2172,102.0222,47.0786,313.0372,2.8773e-05,1.7e-06,0.0,0 STARLINK-3199,1 49760U 21115AN  22335.06209616  .00000170  00000-0  28773-4 0  9990,2 49760  53.2172 102.0222 0001969  47.0786 313.0372 15.08843667 56440,6917.869000000002,95.437,541.096,538.372,0.0
49760.0,STARLINK-3199,PAYLOAD,2022-12-01 07:50:57,15.08839726,0.0002063,53.2176,100.8329,52.6804,307.4376,3.4119e-05,2.55e-06,0.0,0 STARLINK-3199,1 49760U 21115AN  22335.32706012  .00000255  00000-0  34119-4 0  9996,2 49760  53.2176 100.8329 0002063  52.6804 307.4376 15.08839726 55370,6917.880999999999,95.438,541.173,538.319,0.0
49760.0,STARLINK-3199,PAYLOAD,2022-12-02 01:20:12,15.088348000000002,0.0002103,53.2179,97.5621,51.0021,309.1158,4.5392e-05,4.34e-06,0.0,0 STARLINK-3199,1 49760U 21115AN  22336.05570410  .00000434  00000-0  45392-4 0  9992,2 49760  53.2179  97.5621 0002103  51.0021 309.1158 15.08834800 56599,6917.896,95.438,541.216,538.306,0.0
49760.0,STARLINK-3199,PAYLOAD,2022-12-02 09:17:07,15.08848665,0.0002048,53.2179,96.0747,46.7885,313.3278,0.00011887,1.605e-05,0.0,0 STARLINK-3199,1 49760U 21115AN  22336.38689325  .00001605  00000-0  11887-3 0  9996,2 49760  53.2179  96.0747 0002048  46.7885 313.3278 15.08848665 56649,6917.854,95.437,541.136,538.302,0.0
49760.0,STARLINK-3199,PAYLOAD,2022-12-03 01:10:59,15.08845022,0.0002219,53.2181,93.1012,46.5085,313.6091,3.8655e-05,3.27e-06,0.0,0 STARLINK-3199,1 49760U 21115AN  22337.04929778  .00000327  00000-0  38655-4 0  9992,2 49760  53.2181  93.1012 0002219  46.5085 313.6091 15.08845022 56746,6917.865,95.437,541.265,538.195,0.0
49760.0,STARLINK-3199,PAYLOAD,2022-12-03 13:54:05,15.08830704,0.0001981,53.2171,90.7221,44.084,316.031,3.7564e-06,-2.28e-06,0.0,0 STARLINK-3199,1 49760U 21115AN  22337.57922773 -.00000228  00000-0  37564-5 0  9998,2 49760  53.2171  90.7221 0001981  44.0840 316.0310 15.08830704 56828,6917.909000000002,95.438,541.144,538.403,0.0
49760.0,STARLINK-3199,PAYLOAD,2022-12-03 15:29:28,15.08833412,0.0002046,53.2174,90.4249,44.7611,315.3546,1.0251e-05,-1.25e-06,0.0,0 STARLINK-3199,1 49760U 21115AN  22337.64546626 -.00000125  00000-0  10251-4 0  9994,2 49760  53.2174  90.4249 0002046  44.7611 315.3546 15.08833412 55724,6917.901,95.438,541.181,538.35,0.0
49760.0,STARLINK-3199,PAYLOAD,2022-12-04 01:01:46,15.08842198,0.0002058,53.2171,88.6405,45.2733,314.8426,4.5833e-05,4.41e-06,0.0,0 STARLINK-3199,1 49760U 21115AN  22338.04289964  .00000441  00000-0  45833-4 0  9992,2 49760  53.2171  88.6405 0002058  45.2733 314.8426 15.08842198 56899,6917.874,95.437,541.1619999999998,538.315,0.0
49760.0,STARLINK-3199,PAYLOAD,2022-12-04 13:44:51,15.08841345,0.0002127,53.2173,86.2615,46.974,313.143,-3.4668e-05,-8.400000000000001e-06,0.0,0 STARLINK-3199,1 49760U 21115AN  22338.57282215 -.00000840  00000-0 -34668-4 0  9991,2 49760  53.2173  86.2615 0002127  46.9740 313.1430 15.08841345 55867,6917.876,95.437,541.2130000000002,538.27,0.0
49760.0,STARLINK-3199,PAYLOAD,2022-12-04 18:31:02,15.0882659,0.0002055,53.2173,85.3703,40.086,320.0284,-9.932e-05,-1.868e-05,0.0,0 STARLINK-3199,1 49760U 21115AN  22338.77155458 -.00001868  00000-0 -99320-4 0  9998,2 49760  53.2173  85.3703 0002055  40.0860 320.0284 15.08826590 55895,6917.920999999999,95.438,541.2080000000002,538.365,0.0
49760.0,STARLINK-3199,PAYLOAD,2022-12-05 00:52:34,15.08827447,0.0001989,53.2176,84.1796,42.5005,317.6141,2.9973000000000013e-05,1.89e-06,0.0,0 STARLINK-3199,1 49760U 21115AN  22339.03651124  .00000189  00000-0  29973-4 0  9999,2 49760  53.2176  84.1796 0001989  42.5005 317.6141 15.08827447 57045,6917.919,95.438,541.16,538.408,0.0
49760.0,STARLINK-3199,PAYLOAD,2022-12-05 13:35:39,15.08836255,0.0002005,53.2178,81.8006,40.7112,319.4029,9.7905e-05,1.27e-05,0.0,0 STARLINK-3199,1 49760U 21115AN  22339.56642659  .00001270  00000-0  97905-4 0  9992,2 49760  53.2178  81.8006 0002005  40.7112 319.4029 15.08836255 57125,6917.892,95.438,541.144,538.37,0.0
49760.0,STARLINK-3199,PAYLOAD,2022-12-05 18:21:48,15.08845049,0.0002145,53.2171,80.91,35.7586,324.3549,9.5648e-05,1.235e-05,0.0,0 STARLINK-3199,1 49760U 21115AN  22339.76514180  .00001235  00000-0  95648-4 0  9994,2 49760  53.2171  80.9100 0002145  35.7586 324.3549 15.08845049 57153,6917.865,95.437,541.214,538.246,0.0
49760.0,STARLINK-3199,PAYLOAD,2022-12-06 13:26:25,15.08865497,0.0002112,53.2171,77.3405,32.9969,327.1154,-0.00041376,-6.872e-05,0.0,0 STARLINK-3199,1 49760U 21115AN  22340.56001742 -.00006872  00000-0 -41376-3 0  9991,2 49760  53.2171  77.3405 0002112  32.9969 327.1154 15.08865497 56161,6917.802,95.436,541.128,538.206,0.0
49760.0,STARLINK-3199,PAYLOAD,2022-12-06 16:37:13,15.08825668,0.0002066,53.217,76.7465,36.5927,323.5206,0.00012503,1.701e-05,0.0,0 STARLINK-3199,1 49760U 21115AN  22340.69251596  .00001701  00000-0  12503-3 0  9993,2 49760  53.2170  76.7465 0002066  36.5927 323.5206 15.08825668 56187,6917.924,95.438,541.2180000000002,538.36,0.0
49760.0,STARLINK-3199,PAYLOAD,2022-12-07 06:55:41,15.08834235,0.0002048,53.2179,74.0697,34.647,325.4655,9.4906e-05,1.222e-05,0.0,0 STARLINK-3199,1 49760U 21115AN  22341.28867362  .00001222  00000-0  94906-4 0  9999,2 49760  53.2179  74.0697 0002048  34.6470 325.4655 15.08834235 57388,6917.898,95.438,541.18,538.346,0.0
49760.0,STARLINK-3199,PAYLOAD,2022-12-07 13:17:13,15.0883728,0.0002078,53.2174,72.8806,32.5659,327.5461,4.209300000000001e-05,3.82e-06,0.0,0 STARLINK-3199,1 49760U 21115AN  22341.55363348  .00000382  00000-0  42093-4 0  9990,2 49760  53.2174  72.8806 0002078  32.5659 327.5461 15.08837280 56313,6917.889,95.438,541.191,538.316,0.0
49760.0,STARLINK-3199,PAYLOAD,2022-12-08 05:11:04,15.08846493,0.0002035,53.2183,69.9074,34.7165,325.396,0.00012308,1.672e-05,0.0,0 STARLINK-3199,1 49760U 21115AN  22342.21602455  .00001672  00000-0  12308-3 0  9997,2 49760  53.2183  69.9074 0002035  34.7165 325.3960 15.08846493 57526,6917.861,95.437,541.133,538.318,0.0
49760.0,STARLINK-3199,PAYLOAD,2022-12-08 13:07:59,15.08849157,0.0001997,53.2182,68.4221,36.4687,323.6441,0.00022017,3.218e-05,0.0,0 STARLINK-3199,1 49760U 21115AN  22342.54721927  .00003218  00000-0  22017-3 0  9995,2 49760  53.2182  68.4221 0001997  36.4687 323.6441 15.08849157 56464,6917.852,95.437,541.099,538.336,0.0
49760.0,STARLINK-3199,PAYLOAD,2022-12-09 05:01:49,15.08860808,0.000251,53.2187,65.4506,25.7789,334.3328,0.00023207,3.409e-05,0.0,0 STARLINK-3199,1 49760U 21115AN  22343.20960629  .00003409  00000-0  23207-3 0  9997,2 49760  53.2187  65.4506 0002510  25.7789 334.3328 15.08860808 57671,6917.816999999999,95.436,541.418,537.945,0.0
49760.0,STARLINK-3199,PAYLOAD,2022-12-09 17:44:58,15.08822933,0.0002406,53.2175,63.0688,30.1995,329.9135,-8.675299999999999e-05,-1.668e-05,0.0,0 STARLINK-3199,1 49760U 21115AN  22343.73956027 -.00001668  00000-0 -86753-4 0  9995,2 49760  53.2175  63.0688 0002406  30.1995 329.9135 15.08822933 57758,6917.933000000001,95.439,541.462,538.133,0.0
49760.0,STARLINK-3199,PAYLOAD,2022-12-10 04:52:40,15.08844422,0.0001885,53.2172,60.988,351.9685,8.1277,-0.000716,-0.00011667,0.0,0 STARLINK-3199,1 49760U 21115AN  22344.20324107 -.00011667  00000-0 -71600-3 0  9990,2 49760  53.2172  60.9880 0001885 351.9685   8.1277 15.08844422 57823,6917.8669999999975,95.437,541.036,538.428,0.0
49760.0,STARLINK-3199,PAYLOAD,2022-12-10 12:49:35,15.08836936,0.0002396,53.2188,59.4996,32.1261,327.9877,-2.0445e-05,-6.14e-06,0.0,0 STARLINK-3199,1 49760U 21115AN  22344.53443765 -.00000614  00000-0 -20445-4 0  9990,2 49760  53.2188  59.4996 0002396  32.1261 327.9877 15.08836936 56768,6917.89,95.438,541.4119999999998,538.097,0.0
49760.0,STARLINK-3199,PAYLOAD,2022-12-11 04:43:26,15.08829286,0.0002089,53.2185,56.5244,27.8276,332.2827,0.00022379,3.274e-05,0.0,0 STARLINK-3199,1 49760U 21115AN  22345.19683424  .00003274  00000-0  22379-3 0  9991,2 49760  53.2185  56.5244 0002089  27.8276 332.2827 15.08829286 57973,6917.913000000001,95.438,541.2230000000002,538.3330000000002,0.0
49760.0,STARLINK-3199,PAYLOAD,2022-12-11 11:04:58,15.08833221,0.0002129,53.2183,55.3353,29.2056,330.9055,0.00025339,3.746e-05,0.0,0 STARLINK-3199,1 49760U 21115AN  22345.46179373  .00003746  00000-0  25339-3 0  9997,2 49760  53.2183  55.3353 0002129  29.2056 330.9055 15.08833221 56900,6917.901,95.438,541.239,538.293,0.0
